248P/Gibbs,e,6.3516,207.8109,209.9558,5.983674,0.0673368,0.63933152,336.5745,10/02.0/2024,2000,g 14.0,4.0
# From MPEC 2022-YN2
249P/LINEAR,e,8.3854,239.0436,65.7451,2.764917,0.2143784,0.81935193,333.6970,10/02.0/2024,2000,g 15.5,4.0
# From MPC110497
250P/Larson,e,13.1574,73.2836,45.7990,3.778898,0.1341703,0.39881643,329.5514,10/02.0/2024,2000,g 14.5,4.0
# From MPEC 2024-PC5
251P/LINEAR,e,23.3870,219.3398,31.2072,3.512846,0.1496978,0.50432822,34.6979,10/02.0/2024,2000,g 16.5,2.0
# From MPEC 2021-S45
252P/LINEAR,e,10.4175,190.9061,343.3791,3.051237,0.1849227,0.67088408,218.1768,10/02.0/2024,2000,g 17.5,4.0
# From MPEC 2024-RQ6
253P/PANSTARRS,e,4.9441,146.8652,230.8163,3.462229,0.1529926,0.41459971,357.0959,10/02.0/2024,2000,g 14.5,4.0
# From MPEC 2024-EF7
254P/McNaught,e,32.5442,129.1845,219.7451,4.619092,0.0992817,0.31882308,145.2972,10/02.0/2024,2000,g 11.0,4.0
# From NK 2214
255P/Levy,e,13.4034,275.6365,186.0362,2.942407,0.1952765,0.71195722,147.4707,10/02.0/2024,2000,g  9.0,4.0
# From MPEC 2024-L77
256P/LINEAR,e,27.6243,81.3289,124.1094,4.636533,0.0987220,0.41786948,56.2747,10/02.0/2024,2000,g 14.0,2.0
# From MPEC 2023-A50
257P/Catalina,e,20.2184,207.7205,117.7668,3.766921,0.1348107,0.42903306,200.0276,10/02.0/2024,2000,g 11.5,4.0
# From MPEC 2021-U31
258P/PANSTARRS,e,6.7505,126.2336,25.5914,4.390211,0.1071460,0.20918095,167.9588,10/02.0/2024,2000,g 13.0,4.0
# From MPC106349
259P/Garradd,e,15.8985,51.3709,257.5240,2.728933,0.2186325,0.33877870,211.4938,10/02.0/2024,2000,g 15.5,4.0
# From MPEC 2022-O01
260P/McNaught,e,15.0464,349.3235,18.4835,3.623479,0.1428945,0.60897685,263.9943,10/02.0/2024,2000,g 13.5,4.0
# From MPEC 2021-J28
261P/Larson,e,6.0727,291.0551,67.3582,3.490169,0.1511591,0.42295807,291.7782,10/02.0/2024,2000,g 14.0,4.0
# From MPC 82322
262P/McNaught-Russell,e,29.2695,217.8886,171.0670,6.869422,0.0547424,0.81623002,236.0581,10/02.0/2024,2000,g 13.5,4.0
# From MPEC 2024-L77
263P/Gibbs,e,11.5256,105.5022,35.0239,3.041174,0.1858413,0.59383473,113.4206,10/02.0/2024,2000,g 18.0,4.0
# From MPC114608
264P/Larsen,e,25.3255,219.3943,341.2528,4.020857,0.1222436,0.34205519,250.6665,10/02.0/2024,2000,g 13.0,4.0
# From MPC 79870
265P/LINEAR,e,14.3487,342.9391,33.5384,4.259768,0.1121050,0.64710173,149.2006,10/02.0/2024,2000,g 14.5,4.0
# From MPEC 2021-F20
266P/Christensen,e,3.4276,4.9555,97.7344,3.528954,0.1486740,0.34077529,241.6140,10/02.0/2024,2000,g 14.7,4.0
# From MPC114608
267P/LONEOS,e,6.1426,228.5982,114.2374,3.210201,0.1713586,0.61439311,27.4471,10/02.0/2024,2000,g 19.5,4.0
# From MPC 92277
268P/Bernardi,e,15.6409,124.7140,0.0060,4.629202,0.0989566,0.47218210,352.4036,10/02.0/2024,2000,g 14.0,4.0
# From MPEC 2023-J29
269P/Jedicke,e,7.0846,241.7734,225.6819,7.060673,0.0525333,0.43315706,191.6672,10/02.0/2024,2000,g 10.0,4.0
# From MPC 88332
270P/Gehrels,e,2.9252,223.0376,209.8695,6.651356,0.0574564,0.47012188,236.8058,10/02.0/2024,2000,g  8.0,4.0
# From MPC 92277
271P/van Houten-Lemmon,e,6.8689,9.3082,36.5559,7.032430,0.0528501,0.39612244,215.9241,10/02.0/2024,2000,g 11.0,4.0
# From MPEC 2023-D41
272P/NEAT,e,18.0792,109.4414,27.8819,4.461853,0.1045758,0.45529502,84.4767,10/02.0/2024,2000,g 16.0,2.0
# From MPC 82723
273P/Pons-Gambart,e,136.4808,320.3968,20.1753,31.97350,0.0054515,0.97445576,0.0000,12/22.3149/2012,2000,g 11.5,4.0
# From MPEC 2024-GJ3
274P/Tombaugh-Tenagra,e,15.8207,81.3179,38.4763,4.378141,0.1075894,0.44008186,97.6043,10/02.0/2024,2000,g 13.0,4.0
# From MPC 81862
275P/Hermann,e,21.2560,348.6895,173.9087,5.791901,0.0707086,0.71351973,306.5294,10/02.0/2024,2000,g 17.0,4.0
# From MPEC 2024-RQ6
276P/Vorobjov,e,14.8054,211.3407,199.2719,5.345954,0.0797382,0.27072157,354.4304,10/02.0/2024,2000,g 11.5,4.0
# From MPEC 2021-F20
277P/LINEAR,e,16.7906,276.2638,152.4122,3.853561,0.1302899,0.50647206,178.5881,10/02.0/2024,2000,g 15.1,4.0
# From MPEC 2021-S45
278P/McNaught,e,6.6512,14.7132,237.9578,3.662591,0.1406117,0.44387724,207.5535,10/02.0/2024,2000,g 14.0,4.0
# From MPEC 2024-A43
279P/LaSagra,e,5.0506,346.1210,5.7067,3.570452,0.1460896,0.39932331,77.7211,10/02.0/2024,2000,g 14.0,4.0
# From MPEC 2024-RQ6
280P/Larsen,e,11.7743,131.3755,104.6905,4.526299,0.1023503,0.41681554,43.4459,10/02.0/2024,2000,g 12.5,4.0
# From MPEC 2023-D41
281P/MOSS,e,4.7176,87.1667,26.8590,4.884222,0.0913085,0.17378353,55.4177,10/02.0/2024,2000,g 11.0,4.0
# From MPC133426
282P/,e,5.8127,217.6112,9.1865,4.236414,0.1130333,0.18762124,121.4655,10/02.0/2024,2000,g 13.5,2.0
# From MPEC 2022-K19
283P/Spacewatch,e,14.4634,161.1207,22.1557,4.132785,0.1173113,0.48459561,131.4129,10/02.0/2024,2000,g 16.0,2.0
# From MPEC 2024-D33
284P/McNaught,e,11.8555,144.2681,202.4769,3.678091,0.1397238,0.37463277,155.9376,10/02.0/2024,2000,g 13.0,4.0
# From MPEC 2024-L77
285P/LINEAR,e,25.0362,185.5072,178.3905,4.505741,0.1030516,0.61830194,64.8127,10/02.0/2024,2000,g 15.0,4.0
# From MPEC 2024-LE0
286P/Christensen,e,17.1465,283.5949,24.5110,4.094677,0.1189528,0.42787761,103.9814,10/02.0/2024,2000,g 14.0,4.0
# From MPEC 2024-GJ3
287P/Christensen,e,16.3129,138.9538,189.5692,4.173859,0.1155839,0.27246322,52.2616,10/02.0/2024,2000,g 13.5,4.0
# From MPC133426
288P/,e,3.2383,83.1050,280.3058,3.049672,0.1850651,0.19993837,174.9896,10/02.0/2024,2000,g 16.0,2.0
# From MPEC 2024-O39
289P/Blanpain,e,5.9003,68.8918,9.8728,3.043971,0.1855851,0.68645106,323.9368,10/02.0/2024,2000,g 19.0,4.0
# From MPC 95214
290P/Jager,e,20.0480,302.6765,181.8317,6.215314,0.0636077,0.62801874,248.4054,10/02.0/2024,2000,g 10.5,4.0
# From MPEC 2024-L77
291P/NEAT,e,6.3098,237.6594,173.5297,4.533982,0.1020903,0.43405866,52.7767,10/02.0/2024,2000,g 13.0,4.0
# From MPEC 2022-K19
292P/Li,e,24.3199,90.8968,319.6377,6.097341,0.0654626,0.59000973,254.3967,10/02.0/2024,2000,g 12.5,4.0
# From MPEC 2022-L66
293P/Spacewatch,e,9.0615,78.3670,40.9543,3.638528,0.1420089,0.41928034,196.2446,10/02.0/2024,2000,g 14.5,4.0
# From MPEC 2020-SI8
294P/LINEAR,e,18.1560,311.2923,235.8671,3.194449,0.1726275,0.60046926,305.8390,10/02.0/2024,2000,g 15.5,4.0
# From MPEC 2022-K19
295P/LINEAR,e,21.0802,7.3937,72.9982,5.301091,0.0807525,0.61763964,306.8088,10/02.0/2024,2000,g 12.0,4.0
# From MPEC 2021-N06
296P/Garradd,e,25.3565,263.5211,349.9262,3.483305,0.1516062,0.48236194,223.3203,10/02.0/2024,2000,g 14.0,4.0
# From MPC102956
297P/Beshore,e,11.0553,92.5589,141.5284,3.537055,0.1481635,0.30101056,199.1219,10/02.0/2024,2000,g 15.0,4.0
# From MPC114609
298P/Christensen,e,7.8712,52.7965,100.5974,3.588836,0.1449685,0.38662219,215.6018,10/02.0/2024,2000,g 15.0,4.0
# From MPEC 2024-RQ6
299P/Catalina-PANSTARRS,e,10.4686,271.5807,323.6650,4.389437,0.1071743,0.28093473,16.5874,10/02.0/2024,2000,g 11.5,4.0
# From MPEC 2023-VM5
300P/Catalina,e,5.6762,95.6194,222.9043,2.697000,0.2225270,0.69185048,120.1471,10/02.0/2024,2000,g 16.0,4.0
# From MPC 89014
301P/LINEAR-NEAT,e,10.3295,351.0674,193.4673,5.748915,0.0715032,0.58594943,265.3392,10/02.0/2024,2000,g 13.0,4.0
# From MPEC 2024-RQ6
302P/Lemmon-PANSTARRS,e,6.0352,121.7143,208.6267,4.269098,0.1117377,0.22966401,342.3016,10/02.0/2024,2000,g 12.5,4.0
# From MPC 92278
303P/NEAT,e,7.0163,347.9639,357.0194,5.040918,0.0870843,0.51045057,315.9470,10/02.0/2024,2000,g 13.5,4.0
# From MPEC 2022-K19
304P/Ory,e,2.6061,58.9410,335.2691,3.150124,0.1762839,0.60094929,266.1953,10/02.0/2024,2000,g 16.5,4.0
# From MPEC 2024-RQ6
305P/Skiff,e,11.6713,240.1064,147.4255,4.635332,0.0987604,0.69395845,355.4398,10/02.0/2024,2000,g 18.0,4.0
# From MPC 92278
306P/LINEAR,e,8.3032,341.3616,0.8944,3.124567,0.1784512,0.59265708,305.8162,10/02.0/2024,2000,g 19.0,4.0
# From MPC 92278
307P/LINEAR,e,4.4356,158.1438,222.2274,5.787906,0.0707818,0.67530544,252.2926,10/02.0/2024,2000,g 15.0,4.0
# From MPEC 2022-C56
308P/Lagerkvist-Carsenty,e,4.8531,63.0968,333.7340,6.600012,0.0581282,0.36453424,199.2429,10/02.0/2024,2000,g 13.0,2.0
# From MPEC 2024-BE0
309P/LINEAR,e,17.0214,10.1367,49.9066,4.374645,0.1077184,0.61832219,20.1463,10/02.0/2024,2000,g 15.0,4.0
# From MPEC 2024-LE0
310P/Hill,e,13.1197,8.8860,31.5344,4.182347,0.1152322,0.42230564,39.7215,10/02.0/2024,2000,g 13.5,4.0
# From MPEC 2024-A43
311P/PANSTARRS,e,4.9713,279.1720,144.2156,2.188269,0.3044760,0.11563274,83.4944,10/02.0/2024,2000,g 17.0,4.0
# From MPEC 2024-NE4
312P/NEAT,e,19.7492,144.6495,207.7084,3.471616,0.1523725,0.42695285,223.7327,10/02.0/2024,2000,g 16.0,4.0
# From MPEC 2024-N80
313P/Gibbs,e,10.9803,105.9263,254.9611,3.163945,0.1751300,0.23463434,285.2868,10/02.0/2024,2000,g 15.0,4.0
# From MPC105243
314P/Montani,e,3.9915,267.6202,213.8463,7.250499,0.0504838,0.41818075,147.0373,10/02.0/2024,2000,g  9.5,4.0
# From MPEC 2023-J29
315P/LONEOS,e,17.7326,68.6699,65.8467,4.937916,0.0898232,0.52179329,257.5377,10/02.0/2024,2000,g 11.0,4.0
# From MPEC 2024-NE4
316P/LONEOS-Christensen,e,9.8887,245.9346,188.2500,4.425282,0.1058748,0.15930877,358.7717,10/02.0/2024,2000,g 13.5,4.0
# From MPEC 2020-C98
317P/WISE,e,11.9733,275.4694,334.8555,2.960306,0.1935081,0.57182062,283.7764,10/02.0/2024,2000,g 17.5,4.0
# From MPC102103
318P/McNaught-Hartley,e,17.8715,35.5771,313.3262,7.512172,0.0478692,0.67386301,156.3133,10/02.0/2024,2000,g  8.5,6.0
# From MPC 97499
319P/Catalina-McNaught,e,15.0941,111.3456,203.6423,3.563169,0.1465377,0.66627652,134.2362,10/02.0/2024,2000,g 15.0,4.0
# From MPC 96281
320P/McNaught,e,4.9028,295.9399,0.7675,3.095425,0.1809771,0.68479579,245.2632,10/02.0/2024,2000,g 20.5,4.0
# From MPC105243
321P/SOHO,e,20.0683,165.0190,172.7465,2.422209,0.2614489,0.98103251,0.0000,10/26.5908/2023,2000,g 20.0,4.0
# From MPC102103
322P/SOHO,e,11.4620,351.4414,56.9781,2.508443,0.2480835,0.97997103,0.0000,08/21.1145/2023,2000,g 19.0,4.0
# From MPEC 2023-XP6
323P/SOHO,e,5.3273,324.2806,353.1251,2.583848,0.2373032,0.98461316,0.0000,03/14.2966/2025,2000,g 20.0,4.0
# From MPEC 2024-F21
323P-B/SOHO,e,5.4599,323.4620,353.9672,2.889289,0.2006863,0.98611624,0.0000,12/16.2864/2025,2000,g 26.0,4.0
# From MPEC 2024-F21
323P-C/SOHO,e,5.3403,324.1989,353.2066,2.610791,0.2336393,0.98476172,0.0000,04/07.1042/2025,2000,g 27.0,4.0
# From MPEC 2021-W31
